FENGYUN 1C DEB          
1 30361U 99025ABY 17346.37540716  .00000382  00000-0  21067-3 0  9994
2 30361  98.8394  36.2648 0077598 147.7388 270.9208 14.15734209562039
